0 COSMOS 2251 DEB
1 35796U 93036ASS 13281.38678323  .00001403  00000-0  51951-3 0  2665
2 35796 074.0125 166.4556 0051625 248.5718 230.3285 14.32535326225138
0 COSMOS 2251 DEB
1 35796U 93036ASS 13283.34232787  .00001660  00000-0  61241-3 0  2672
2 35796 074.0121 162.8801 0051550 244.5704 235.3194 14.32548629225410
0 COSMOS 2251 DEB
1 35796U 93036ASS 13285.36680794  .00001674  00000-0  61764-3 0  2687
2 35796 074.0117 159.1792 0051532 240.4100 235.9152 14.32555797225704
0 COSMOS 2251 DEB
1 35796U 93036ASS 13289.34845087  .00002321  00000-0  85198-3 0  2695
2 35796 074.0110 151.9001 0051404 232.2579 250.1036 14.32578863226279
0 COSMOS 2251 DEB
1 35796U 93036ASS 13291.99157646  .00002997  00000-0  10972-2 0  2704
2 35796 074.0110 147.0684 0051384 226.8885 201.4320 14.32590566226659
0 COSMOS 2251 DEB
1 35796U 93036ASS 13294.92360190  .00003798  00000-0  13872-2 0  2713
2 35796 074.0112 141.7078 0051270 220.9137 202.8705 14.32609475227066
